ONEWEB-0094             
1 45450U 20020AC  24344.64348323  .00000017  00000+0  11527-4 0  9999
2 45450  87.9093 116.3118 0001610  97.4039 262.7275 13.17650845233286
ONEWEB-0087             
1 45451U 20020AD  24344.35374269 -.00000178  00000+0 -53896-3 0  9990
2 45451  87.8884 131.5765 0001610  87.7677 272.3636 13.11414984229864
ONEWEB-0082             
1 45452U 20020AE  24344.35048348  .00000033  00000+0  56249-4 0  9991
2 45452  87.8891 131.5893 0001415  91.3452 268.7838 13.11413314229959
ONEWEB-0050             
1 45453U 20020AF  24344.29834553  .00004082  00000+0  39466-3 0  9995
2 45453  88.0018 343.7383 0004173 128.4584 231.7021 14.92587711257719
ONEWEB-0034             
1 45454U 20020AG  24344.37252325 -.00000520  00000+0 -15029-2 0  9999
2 45454  87.8890 131.6040 0001472  95.6442 264.4853 13.11417793229870
ONEWEB-0060             
1 45455U 20020AH  24344.64395463  .00000503  00000+0  13840-2 0  9999
2 45455  87.8895 131.5714 0001633  99.7249 260.4064 13.11413674229865
ONEWEB-0086             
1 45456U 20020AJ  24344.47426564  .00000449  00000+0  12301-2 0  9998
2 45456  87.8891 131.5838 0001644  81.6971 278.4344 13.11418809229903
ONEWEB-0088             
1 45457U 20020AK  24344.45219777 -.00000344  00000+0 -10078-2 0  9998
2 45457  87.8885 131.5460 0001585  93.2315 266.8994 13.11415519229832
